CCSDS_OMM_VERS = 2.0
CREATION_DATE  = 
ORIGINATOR     = 

OBJECT_NAME    = STARLINK-36227
OBJECT_ID      = 2025-298W
CENTER_NAME    = EARTH
REF_FRAME      = TEME
TIME_SYSTEM    = UTC
MEAN_ELEMENT_THEORY = SGP/SGP4

EPOCH          = 2025-12-25T06:00:04.000320
MEAN_MOTION    = 15.80675480
ECCENTRICITY   = .00036641
INCLINATION    = 69.9957
RA_OF_ASC_NODE = 214.3610
ARG_OF_PERICENTER = 275.0355
MEAN_ANOMALY   = 59.4739

EPHEMERIS_TYPE = 0
CLASSIFICATION_TYPE = U
NORAD_CAT_ID   = 67095
ELEMENT_SET_NO = 999
REV_AT_EPOCH   = 292
BSTAR          = -.1049907E-1
MEAN_MOTION_DOT = -.1778549E-1
MEAN_MOTION_DDOT = 0

CCSDS_OMM_VERS = 2.0
CREATION_DATE  = 
ORIGINATOR     = 

OBJECT_NAME    = STARLINK-36228
OBJECT_ID      = 2025-298X
CENTER_NAME    = EARTH
REF_FRAME      = TEME
TIME_SYSTEM    = UTC
MEAN_ELEMENT_THEORY = SGP/SGP4

EPOCH          = 2025-12-25T06:00:04.000320
MEAN_MOTION    = 15.80681568
ECCENTRICITY   = .00036758
INCLINATION    = 69.9959
RA_OF_ASC_NODE = 214.3591
ARG_OF_PERICENTER = 270.1124
MEAN_ANOMALY   = 66.2091

EPHEMERIS_TYPE = 0
CLASSIFICATION_TYPE = U
NORAD_CAT_ID   = 67096
ELEMENT_SET_NO = 999
REV_AT_EPOCH   = 292
BSTAR          = -.105105E-1
MEAN_MOTION_DOT = -.1780712E-1
MEAN_MOTION_DDOT = 0

CCSDS_OMM_VERS = 2.0
CREATION_DATE  = 
ORIGINATOR     = 

OBJECT_NAME    = STARLINK-36222
OBJECT_ID      = 2025-298Y
CENTER_NAME    = EARTH
REF_FRAME      = TEME
TIME_SYSTEM    = UTC
MEAN_ELEMENT_THEORY = SGP/SGP4

EPOCH          = 2025-12-25T06:00:04.000320
MEAN_MOTION    = 15.80676623
ECCENTRICITY   = .00039503
INCLINATION    = 69.9957
RA_OF_ASC_NODE = 214.3565
ARG_OF_PERICENTER = 272.2549
MEAN_ANOMALY   = 66.0655

EPHEMERIS_TYPE = 0
CLASSIFICATION_TYPE = U
NORAD_CAT_ID   = 67097
ELEMENT_SET_NO = 999
REV_AT_EPOCH   = 292
BSTAR          = -.10495113E-1
MEAN_MOTION_DOT = -.1778363E-1
MEAN_MOTION_DDOT = 0

CCSDS_OMM_VERS = 2.0
CREATION_DATE  = 
ORIGINATOR     = 

OBJECT_NAME    = STARLINK-36205
OBJECT_ID      = 2025-298Z
CENTER_NAME    = EARTH
REF_FRAME      = TEME
TIME_SYSTEM    = UTC
MEAN_ELEMENT_THEORY = SGP/SGP4

EPOCH          = 2025-12-25T06:00:04.000320
MEAN_MOTION    = 15.80668912
ECCENTRICITY   = .00037969
INCLINATION    = 69.9957
RA_OF_ASC_NODE = 214.3540
ARG_OF_PERICENTER = 274.9236
MEAN_ANOMALY   = 65.5529

EPHEMERIS_TYPE = 0
CLASSIFICATION_TYPE = U
NORAD_CAT_ID   = 67098
ELEMENT_SET_NO = 999
REV_AT_EPOCH   = 298
BSTAR          = -.10519123E-1
MEAN_MOTION_DOT = -.1781214E-1
MEAN_MOTION_DDOT = 0

CCSDS_OMM_VERS = 2.0
CREATION_DATE  = 
ORIGINATOR     = 

OBJECT_NAME    = STARLINK-36193
OBJECT_ID      = 2025-298AA
CENTER_NAME    = EARTH
REF_FRAME      = TEME
TIME_SYSTEM    = UTC
MEAN_ELEMENT_THEORY = SGP/SGP4

EPOCH          = 2025-12-25T06:00:04.000320
MEAN_MOTION    = 15.79043344
ECCENTRICITY   = .000379
INCLINATION    = 69.9958
RA_OF_ASC_NODE = 214.3540
ARG_OF_PERICENTER = 268.4576
MEAN_ANOMALY   = 72.1362

EPHEMERIS_TYPE = 0
CLASSIFICATION_TYPE = U
NORAD_CAT_ID   = 67099
ELEMENT_SET_NO = 999
REV_AT_EPOCH   = 292
BSTAR          = -.15906252E-1
MEAN_MOTION_DOT = -.2442091E-1
MEAN_MOTION_DDOT = 0

CCSDS_OMM_VERS = 2.0
CREATION_DATE  = 
ORIGINATOR     = 

OBJECT_NAME    = STARLINK-36215
OBJECT_ID      = 2025-298AB
CENTER_NAME    = EARTH
REF_FRAME      = TEME
TIME_SYSTEM    = UTC
MEAN_ELEMENT_THEORY = SGP/SGP4

EPOCH          = 2025-12-25T06:00:04.000320
MEAN_MOTION    = 15.80676441
ECCENTRICITY   = .00038447
INCLINATION    = 69.9954
RA_OF_ASC_NODE = 214.3473
ARG_OF_PERICENTER = 275.8617
MEAN_ANOMALY   = 70.0811

EPHEMERIS_TYPE = 0
CLASSIFICATION_TYPE = U
NORAD_CAT_ID   = 67100
ELEMENT_SET_NO = 999
REV_AT_EPOCH   = 298
BSTAR          = -.10481992E-1
MEAN_MOTION_DOT = -.177627E-1
MEAN_MOTION_DDOT = 0

CCSDS_OMM_VERS = 2.0
CREATION_DATE  = 
ORIGINATOR     = 

OBJECT_NAME    = STARLINK-36200
OBJECT_ID      = 2025-298AC
CENTER_NAME    = EARTH
REF_FRAME      = TEME
TIME_SYSTEM    = UTC
MEAN_ELEMENT_THEORY = SGP/SGP4

EPOCH          = 2025-12-25T06:00:04.000320
MEAN_MOTION    = 15.80672470
ECCENTRICITY   = .00039273
INCLINATION    = 69.9959
RA_OF_ASC_NODE = 214.3523
ARG_OF_PERICENTER = 270.0949
MEAN_ANOMALY   = 72.1475

EPHEMERIS_TYPE = 0
CLASSIFICATION_TYPE = U
NORAD_CAT_ID   = 67101
ELEMENT_SET_NO = 999
REV_AT_EPOCH   = 298
BSTAR          = -.10488572E-1
MEAN_MOTION_DOT = -.1777058E-1
MEAN_MOTION_DDOT = 0

CCSDS_OMM_VERS = 2.0
CREATION_DATE  = 
ORIGINATOR     = 

OBJECT_NAME    = STARLINK-36255
OBJECT_ID      = 2025-299A
CENTER_NAME    = EARTH
REF_FRAME      = TEME
TIME_SYSTEM    = UTC
MEAN_ELEMENT_THEORY = SGP/SGP4

EPOCH          = 2025-12-25T06:00:04.000320
MEAN_MOTION    = 15.83789323
ECCENTRICITY   = .00016744
INCLINATION    = 42.9968
RA_OF_ASC_NODE = 240.0012
ARG_OF_PERICENTER = 265.4843
MEAN_ANOMALY   = 308.0340

EPHEMERIS_TYPE = 0
CLASSIFICATION_TYPE = U
NORAD_CAT_ID   = 67102
ELEMENT_SET_NO = 999
REV_AT_EPOCH   = 282
BSTAR          = -.8937297E-2
MEAN_MOTION_DOT = -.1802495E-1
MEAN_MOTION_DDOT = 0

CCSDS_OMM_VERS = 2.0
CREATION_DATE  = 
ORIGINATOR     = 

OBJECT_NAME    = STARLINK-36256
OBJECT_ID      = 2025-299B
CENTER_NAME    = EARTH
REF_FRAME      = TEME
TIME_SYSTEM    = UTC
MEAN_ELEMENT_THEORY = SGP/SGP4

EPOCH          = 2025-12-25T06:00:04.000320
MEAN_MOTION    = 15.83808858
ECCENTRICITY   = .00015741
INCLINATION    = 42.9967
RA_OF_ASC_NODE = 239.9981
ARG_OF_PERICENTER = 271.4901
MEAN_ANOMALY   = 303.3392

EPHEMERIS_TYPE = 0
CLASSIFICATION_TYPE = U
NORAD_CAT_ID   = 67103
ELEMENT_SET_NO = 999
REV_AT_EPOCH   = 282
BSTAR          = -.8928518E-2
MEAN_MOTION_DOT = -.1802337E-1
MEAN_MOTION_DDOT = 0

CCSDS_OMM_VERS = 2.0
CREATION_DATE  = 
ORIGINATOR     = 

OBJECT_NAME    = STARLINK-36258
OBJECT_ID      = 2025-299C
CENTER_NAME    = EARTH
REF_FRAME      = TEME
TIME_SYSTEM    = UTC
MEAN_ELEMENT_THEORY = SGP/SGP4

EPOCH          = 2025-12-25T06:00:04.000320
MEAN_MOTION    = 15.83822197
ECCENTRICITY   = .00016854
INCLINATION    = 42.9967
RA_OF_ASC_NODE = 239.9942
ARG_OF_PERICENTER = 268.0948
MEAN_ANOMALY   = 308.2149

EPHEMERIS_TYPE = 0
CLASSIFICATION_TYPE = U
NORAD_CAT_ID   = 67104
ELEMENT_SET_NO = 999
REV_AT_EPOCH   = 282
BSTAR          = -.89205427E-2
MEAN_MOTION_DOT = -.1802044E-1
MEAN_MOTION_DDOT = 0

CCSDS_OMM_VERS = 2.0
CREATION_DATE  = 
ORIGINATOR     = 

OBJECT_NAME    = STARLINK-36261
OBJECT_ID      = 2025-299D
CENTER_NAME    = EARTH
REF_FRAME      = TEME
TIME_SYSTEM    = UTC
MEAN_ELEMENT_THEORY = SGP/SGP4

EPOCH          = 2025-12-25T06:00:04.000320
MEAN_MOTION    = 15.83843778
ECCENTRICITY   = .00016254
INCLINATION    = 42.9966
RA_OF_ASC_NODE = 239.9911
ARG_OF_PERICENTER = 266.9498
MEAN_ANOMALY   = 310.5979

EPHEMERIS_TYPE = 0
CLASSIFICATION_TYPE = U
NORAD_CAT_ID   = 67105
ELEMENT_SET_NO = 999
REV_AT_EPOCH   = 282
BSTAR          = -.88844674E-2
MEAN_MOTION_DOT = -.1797224E-1
MEAN_MOTION_DDOT = 0

CCSDS_OMM_VERS = 2.0
CREATION_DATE  = 
ORIGINATOR     = 

OBJECT_NAME    = STARLINK-36259
OBJECT_ID      = 2025-299E
CENTER_NAME    = EARTH
REF_FRAME      = TEME
TIME_SYSTEM    = UTC
MEAN_ELEMENT_THEORY = SGP/SGP4

EPOCH          = 2025-12-25T06:00:04.000320
MEAN_MOTION    = 15.83856125
ECCENTRICITY   = .00015375
INCLINATION    = 42.9969
RA_OF_ASC_NODE = 239.9829
ARG_OF_PERICENTER = 261.1487
MEAN_ANOMALY   = 319.6869

EPHEMERIS_TYPE = 0
CLASSIFICATION_TYPE = U
NORAD_CAT_ID   = 67106
ELEMENT_SET_NO = 999
REV_AT_EPOCH   = 282
BSTAR          = -.88530265E-2
MEAN_MOTION_DOT = -.1792485E-1
MEAN_MOTION_DDOT = 0

CCSDS_OMM_VERS = 2.0
CREATION_DATE  = 
ORIGINATOR     = 

OBJECT_NAME    = STARLINK-36196
OBJECT_ID      = 2025-299F
CENTER_NAME    = EARTH
REF_FRAME      = TEME
TIME_SYSTEM    = UTC
MEAN_ELEMENT_THEORY = SGP/SGP4

EPOCH          = 2025-12-25T06:00:04.000320
MEAN_MOTION    = 15.83859119
ECCENTRICITY   = .00015545
INCLINATION    = 42.9968
RA_OF_ASC_NODE = 239.9874
ARG_OF_PERICENTER = 269.4024
MEAN_ANOMALY   = 309.7062

EPHEMERIS_TYPE = 0
CLASSIFICATION_TYPE = U
NORAD_CAT_ID   = 67107
ELEMENT_SET_NO = 999
REV_AT_EPOCH   = 282
BSTAR          = -.89291305E-2
MEAN_MOTION_DOT = -.1806274E-1
MEAN_MOTION_DDOT = 0

CCSDS_OMM_VERS = 2.0
CREATION_DATE  = 
ORIGINATOR     = 

OBJECT_NAME    = STARLINK-36208
OBJECT_ID      = 2025-299G
CENTER_NAME    = EARTH
REF_FRAME      = TEME
TIME_SYSTEM    = UTC
MEAN_ELEMENT_THEORY = SGP/SGP4

EPOCH          = 2025-12-25T06:00:04.000320
MEAN_MOTION    = 15.83867097
ECCENTRICITY   = .00014353
INCLINATION    = 42.9969
RA_OF_ASC_NODE = 239.9785
ARG_OF_PERICENTER = 259.9827
MEAN_ANOMALY   = 322.5606

EPHEMERIS_TYPE = 0
CLASSIFICATION_TYPE = U
NORAD_CAT_ID   = 67108
ELEMENT_SET_NO = 999
REV_AT_EPOCH   = 282
BSTAR          = -.88648973E-2
MEAN_MOTION_DOT = -.1795344E-1
MEAN_MOTION_DDOT = 0

CCSDS_OMM_VERS = 2.0
CREATION_DATE  = 
ORIGINATOR     = 

OBJECT_NAME    = STARLINK-35764
OBJECT_ID      = 2025-299H
CENTER_NAME    = EARTH
REF_FRAME      = TEME
TIME_SYSTEM    = UTC
MEAN_ELEMENT_THEORY = SGP/SGP4

EPOCH          = 2025-12-25T06:00:04.000320
MEAN_MOTION    = 15.83872114
ECCENTRICITY   = .00015746
INCLINATION    = 42.9971
RA_OF_ASC_NODE = 239.9739
ARG_OF_PERICENTER = 265.0214
MEAN_ANOMALY   = 319.3684

EPHEMERIS_TYPE = 0
CLASSIFICATION_TYPE = U
NORAD_CAT_ID   = 67109
ELEMENT_SET_NO = 999
REV_AT_EPOCH   = 271
BSTAR          = -.88878331E-2
MEAN_MOTION_DOT = -.1799938E-1
MEAN_MOTION_DDOT = 0

